STARLINK-35581          
1 66479U 25262Z   25334.50004630 -.02031606  00000+0 -16266-1 0  9995
2 66479  42.9989 143.1093 0001336 263.4544 276.1216 15.73186601  3676
STARLINK-35670          
1 66480U 25262AA  25334.16671295 -.02104411  00000+0 -15847-1 0  9995
2 66480  42.9991 145.1118 0001594 280.7093 173.6200 15.74697953  3614
STARLINK-35698          
1 66481U 25262AB  25334.50004630 -.02031205  00000+0 -16265-1 0  9992
2 66481  42.9990 143.0891 0001124 265.2171 282.0302 15.73185223  3678
STARLINK-35648          
1 66482U 25262AC  25334.16671295 -.02080123  00000+0 -15648-1 0  9999
2 66482  42.9990 145.1028 0001281 281.5666 176.5900 15.74687768  3468
STARLINK-35654          
1 66483U 25262AD  25334.16671295 -.02047266  00000+0 -15386-1 0  9990
2 66483  42.9990 145.0969 0001447 284.7637 175.3309 15.74657049  3615
STARLINK-35371          
1 66484U 25262AE  25334.16671295 -.02111862  00000+0 -15908-1 0  9995
2 66484  42.9990 145.0928 0001390 278.8716 183.1219 15.74705093  3610
STARLINK-34774          
1 66485U 25263A   25334.16671295 -.01397803  00000+0 -86571-2 0  9992
2 66485  42.9981 199.8735 0001783 281.4927 176.5472 15.78798376  3611
STARLINK-34844          
1 66486U 25263B   25334.16671295 -.01418113  00000+0 -88956-2 0  9990
2 66486  42.9979 199.8653 0001820 280.8995 180.1817 15.78558881  3561
STARLINK-34733          
1 66487U 25263C   25333.25002315 -.01461436  00000+0 -80865-2 0  9998
2 66487  42.9974 205.4591 0001908 269.7474  13.7047 15.81349066  3469
STARLINK-35515          
1 66488U 25263D   25334.16671295 -.01441133  00000+0 -91390-2 0  9996
2 66488  42.9983 199.8538 0001787 280.2000 185.5765 15.78365965  3619
STARLINK-35696          
1 66489U 25263E   25334.16671295 -.01447539  00000+0 -92191-2 0  9993
2 66489  42.9981 199.8478 0001724 280.1813 187.8565 15.78285403  3614
STARLINK-35693          
1 66490U 25263F   25334.16671295 -.01451219  00000+0 -93035-2 0  9993
2 66490  42.9981 199.8415 0001805 278.7790 191.6938 15.78147514  3611
