CCSDS_OMM_VERS = 2.0
CREATION_DATE  = 
ORIGINATOR     = 

OBJECT_NAME    = STARLINK-35581
OBJECT_ID      = 2025-262Z
CENTER_NAME    = EARTH
REF_FRAME      = TEME
TIME_SYSTEM    = UTC
MEAN_ELEMENT_THEORY = SGP/SGP4

EPOCH          = 2025-11-30T12:00:04.000320
MEAN_MOTION    = 15.73186601
ECCENTRICITY   = .0001336
INCLINATION    = 42.9989
RA_OF_ASC_NODE = 143.1093
ARG_OF_PERICENTER = 263.4544
MEAN_ANOMALY   = 276.1216

EPHEMERIS_TYPE = 0
CLASSIFICATION_TYPE = U
NORAD_CAT_ID   = 66479
ELEMENT_SET_NO = 999
REV_AT_EPOCH   = 367
BSTAR          = -.16266E-1
MEAN_MOTION_DOT = -.2031606E-1
MEAN_MOTION_DDOT = 0

CCSDS_OMM_VERS = 2.0
CREATION_DATE  = 
ORIGINATOR     = 

OBJECT_NAME    = STARLINK-35670
OBJECT_ID      = 2025-262AA
CENTER_NAME    = EARTH
REF_FRAME      = TEME
TIME_SYSTEM    = UTC
MEAN_ELEMENT_THEORY = SGP/SGP4

EPOCH          = 2025-11-30T04:00:03.998880
MEAN_MOTION    = 15.74697953
ECCENTRICITY   = .0001594
INCLINATION    = 42.9991
RA_OF_ASC_NODE = 145.1118
ARG_OF_PERICENTER = 280.7093
MEAN_ANOMALY   = 173.6200

EPHEMERIS_TYPE = 0
CLASSIFICATION_TYPE = U
NORAD_CAT_ID   = 66480
ELEMENT_SET_NO = 999
REV_AT_EPOCH   = 361
BSTAR          = -.15847E-1
MEAN_MOTION_DOT = -.2104411E-1
MEAN_MOTION_DDOT = 0

CCSDS_OMM_VERS = 2.0
CREATION_DATE  = 
ORIGINATOR     = 

OBJECT_NAME    = STARLINK-35698
OBJECT_ID      = 2025-262AB
CENTER_NAME    = EARTH
REF_FRAME      = TEME
TIME_SYSTEM    = UTC
MEAN_ELEMENT_THEORY = SGP/SGP4

EPOCH          = 2025-11-30T12:00:04.000320
MEAN_MOTION    = 15.73185223
ECCENTRICITY   = .0001124
INCLINATION    = 42.9990
RA_OF_ASC_NODE = 143.0891
ARG_OF_PERICENTER = 265.2171
MEAN_ANOMALY   = 282.0302

EPHEMERIS_TYPE = 0
CLASSIFICATION_TYPE = U
NORAD_CAT_ID   = 66481
ELEMENT_SET_NO = 999
REV_AT_EPOCH   = 367
BSTAR          = -.16265E-1
MEAN_MOTION_DOT = -.2031205E-1
MEAN_MOTION_DDOT = 0

CCSDS_OMM_VERS = 2.0
CREATION_DATE  = 
ORIGINATOR     = 

OBJECT_NAME    = STARLINK-35648
OBJECT_ID      = 2025-262AC
CENTER_NAME    = EARTH
REF_FRAME      = TEME
TIME_SYSTEM    = UTC
MEAN_ELEMENT_THEORY = SGP/SGP4

EPOCH          = 2025-11-30T04:00:03.998880
MEAN_MOTION    = 15.74687768
ECCENTRICITY   = .0001281
INCLINATION    = 42.9990
RA_OF_ASC_NODE = 145.1028
ARG_OF_PERICENTER = 281.5666
MEAN_ANOMALY   = 176.5900

EPHEMERIS_TYPE = 0
CLASSIFICATION_TYPE = U
NORAD_CAT_ID   = 66482
ELEMENT_SET_NO = 999
REV_AT_EPOCH   = 346
BSTAR          = -.15648E-1
MEAN_MOTION_DOT = -.2080123E-1
MEAN_MOTION_DDOT = 0

CCSDS_OMM_VERS = 2.0
CREATION_DATE  = 
ORIGINATOR     = 

OBJECT_NAME    = STARLINK-35654
OBJECT_ID      = 2025-262AD
CENTER_NAME    = EARTH
REF_FRAME      = TEME
TIME_SYSTEM    = UTC
MEAN_ELEMENT_THEORY = SGP/SGP4

EPOCH          = 2025-11-30T04:00:03.998880
MEAN_MOTION    = 15.74657049
ECCENTRICITY   = .0001447
INCLINATION    = 42.9990
RA_OF_ASC_NODE = 145.0969
ARG_OF_PERICENTER = 284.7637
MEAN_ANOMALY   = 175.3309

EPHEMERIS_TYPE = 0
CLASSIFICATION_TYPE = U
NORAD_CAT_ID   = 66483
ELEMENT_SET_NO = 999
REV_AT_EPOCH   = 361
BSTAR          = -.15386E-1
MEAN_MOTION_DOT = -.2047266E-1
MEAN_MOTION_DDOT = 0

CCSDS_OMM_VERS = 2.0
CREATION_DATE  = 
ORIGINATOR     = 

OBJECT_NAME    = STARLINK-35371
OBJECT_ID      = 2025-262AE
CENTER_NAME    = EARTH
REF_FRAME      = TEME
TIME_SYSTEM    = UTC
MEAN_ELEMENT_THEORY = SGP/SGP4

EPOCH          = 2025-11-30T04:00:03.998880
MEAN_MOTION    = 15.74705093
ECCENTRICITY   = .000139
INCLINATION    = 42.9990
RA_OF_ASC_NODE = 145.0928
ARG_OF_PERICENTER = 278.8716
MEAN_ANOMALY   = 183.1219

EPHEMERIS_TYPE = 0
CLASSIFICATION_TYPE = U
NORAD_CAT_ID   = 66484
ELEMENT_SET_NO = 999
REV_AT_EPOCH   = 361
BSTAR          = -.15908E-1
MEAN_MOTION_DOT = -.2111862E-1
MEAN_MOTION_DDOT = 0

CCSDS_OMM_VERS = 2.0
CREATION_DATE  = 
ORIGINATOR     = 

OBJECT_NAME    = STARLINK-34774
OBJECT_ID      = 2025-263A
CENTER_NAME    = EARTH
REF_FRAME      = TEME
TIME_SYSTEM    = UTC
MEAN_ELEMENT_THEORY = SGP/SGP4

EPOCH          = 2025-11-30T04:00:03.998880
MEAN_MOTION    = 15.78798376
ECCENTRICITY   = .0001783
INCLINATION    = 42.9981
RA_OF_ASC_NODE = 199.8735
ARG_OF_PERICENTER = 281.4927
MEAN_ANOMALY   = 176.5472

EPHEMERIS_TYPE = 0
CLASSIFICATION_TYPE = U
NORAD_CAT_ID   = 66485
ELEMENT_SET_NO = 999
REV_AT_EPOCH   = 361
BSTAR          = -.86571E-2
MEAN_MOTION_DOT = -.1397803E-1
MEAN_MOTION_DDOT = 0

CCSDS_OMM_VERS = 2.0
CREATION_DATE  = 
ORIGINATOR     = 

OBJECT_NAME    = STARLINK-34844
OBJECT_ID      = 2025-263B
CENTER_NAME    = EARTH
REF_FRAME      = TEME
TIME_SYSTEM    = UTC
MEAN_ELEMENT_THEORY = SGP/SGP4

EPOCH          = 2025-11-30T04:00:03.998880
MEAN_MOTION    = 15.78558881
ECCENTRICITY   = .000182
INCLINATION    = 42.9979
RA_OF_ASC_NODE = 199.8653
ARG_OF_PERICENTER = 280.8995
MEAN_ANOMALY   = 180.1817

EPHEMERIS_TYPE = 0
CLASSIFICATION_TYPE = U
NORAD_CAT_ID   = 66486
ELEMENT_SET_NO = 999
REV_AT_EPOCH   = 356
BSTAR          = -.88956E-2
MEAN_MOTION_DOT = -.1418113E-1
MEAN_MOTION_DDOT = 0

CCSDS_OMM_VERS = 2.0
CREATION_DATE  = 
ORIGINATOR     = 

OBJECT_NAME    = STARLINK-34733
OBJECT_ID      = 2025-263C
CENTER_NAME    = EARTH
REF_FRAME      = TEME
TIME_SYSTEM    = UTC
MEAN_ELEMENT_THEORY = SGP/SGP4

EPOCH          = 2025-11-29T06:00:02.000160
MEAN_MOTION    = 15.81349066
ECCENTRICITY   = .00019089
INCLINATION    = 42.9974
RA_OF_ASC_NODE = 205.4591
ARG_OF_PERICENTER = 269.7474
MEAN_ANOMALY   = 13.7047

EPHEMERIS_TYPE = 0
CLASSIFICATION_TYPE = U
NORAD_CAT_ID   = 66487
ELEMENT_SET_NO = 999
REV_AT_EPOCH   = 346
BSTAR          = -.80864986E-2
MEAN_MOTION_DOT = -.1461436E-1
MEAN_MOTION_DDOT = 0

CCSDS_OMM_VERS = 2.0
CREATION_DATE  = 
ORIGINATOR     = 

OBJECT_NAME    = STARLINK-35515
OBJECT_ID      = 2025-263D
CENTER_NAME    = EARTH
REF_FRAME      = TEME
TIME_SYSTEM    = UTC
MEAN_ELEMENT_THEORY = SGP/SGP4

EPOCH          = 2025-11-30T04:00:03.998880
MEAN_MOTION    = 15.78365965
ECCENTRICITY   = .0001787
INCLINATION    = 42.9983
RA_OF_ASC_NODE = 199.8538
ARG_OF_PERICENTER = 280.2000
MEAN_ANOMALY   = 185.5765

EPHEMERIS_TYPE = 0
CLASSIFICATION_TYPE = U
NORAD_CAT_ID   = 66488
ELEMENT_SET_NO = 999
REV_AT_EPOCH   = 361
BSTAR          = -.9139E-2
MEAN_MOTION_DOT = -.1441133E-1
MEAN_MOTION_DDOT = 0

CCSDS_OMM_VERS = 2.0
CREATION_DATE  = 
ORIGINATOR     = 

OBJECT_NAME    = STARLINK-35696
OBJECT_ID      = 2025-263E
CENTER_NAME    = EARTH
REF_FRAME      = TEME
TIME_SYSTEM    = UTC
MEAN_ELEMENT_THEORY = SGP/SGP4

EPOCH          = 2025-11-30T04:00:03.998880
MEAN_MOTION    = 15.78285403
ECCENTRICITY   = .0001724
INCLINATION    = 42.9981
RA_OF_ASC_NODE = 199.8478
ARG_OF_PERICENTER = 280.1813
MEAN_ANOMALY   = 187.8565

EPHEMERIS_TYPE = 0
CLASSIFICATION_TYPE = U
NORAD_CAT_ID   = 66489
ELEMENT_SET_NO = 999
REV_AT_EPOCH   = 361
BSTAR          = -.92191E-2
MEAN_MOTION_DOT = -.1447539E-1
MEAN_MOTION_DDOT = 0

CCSDS_OMM_VERS = 2.0
CREATION_DATE  = 
ORIGINATOR     = 

OBJECT_NAME    = STARLINK-35693
OBJECT_ID      = 2025-263F
CENTER_NAME    = EARTH
REF_FRAME      = TEME
TIME_SYSTEM    = UTC
MEAN_ELEMENT_THEORY = SGP/SGP4

EPOCH          = 2025-11-30T04:00:03.998880
MEAN_MOTION    = 15.78147514
ECCENTRICITY   = .0001805
INCLINATION    = 42.9981
RA_OF_ASC_NODE = 199.8415
ARG_OF_PERICENTER = 278.7790
MEAN_ANOMALY   = 191.6938

EPHEMERIS_TYPE = 0
CLASSIFICATION_TYPE = U
NORAD_CAT_ID   = 66490
ELEMENT_SET_NO = 999
REV_AT_EPOCH   = 361
BSTAR          = -.93035E-2
MEAN_MOTION_DOT = -.1451219E-1
MEAN_MOTION_DDOT = 0

